satname,norad_id,inclination_deg,eccentricity,mean_motion_rev_per_day,perigee_km,apogee_km,l1,l2
STARLINK-1008,44714,53.1571,0.0001226,15.31031574,471.8933465494829,473.573179938031,1 44714U 19074B   26045.66295646  .00001804  00000+0  71280-4 0  9996,2 44714  53.1571 285.8544 0001226 105.3888 254.7248 15.31031574345345
STARLINK-1012,44718,53.1573,0.0001136,15.30176409,474.5069600009847,476.06405759498284,1 44718U 19074F   26045.63074207 -.00002661  00000+0 -77801-4 0  9994,2 44718  53.1573 285.9153 0001136 102.1630 257.9499 15.30176409345336
STARLINK-1017,44723,53.0487,0.0003437,15.22011599,497.40976865050743,502.1376444701955,1 44723U 19074L   26045.64079920  .00014852  00000+0  65491-3 0  9992,2 44723  53.0487 277.6155 0003437 114.2603 245.8752 15.22011599345455
STARLINK-1019,44724,53.0454,0.0009157,15.74467643,339.9890655248055,352.30391831190354,1 44724U 19074M   26045.66668981  .00162736  00000+0  10786-2 0  9997,2 44724  53.0454 251.9259 0009157 119.8324 120.0016 15.74467643  5997
STARLINK-1020,44725,53.0752,0.0001002,15.1204731,529.2650674544757,530.6494495438801,1 44725U 19074N   26045.66668981  .00074289  00000+0  42446-2 0  9991,2 44725  53.0752 309.9045 0001002  74.4577 347.0898 15.12047310  5393
STARLINK-1031,44736,53.0421,0.0004142,15.80934328,325.01960901061466,330.5748049076592,1 44736U 19074Z   26045.66668981  .00257101  00000+0  12636-2 0  9997,2 44736  53.0421 236.5822 0004142 159.5421  22.5902 15.80934328  6006
STARLINK-1036,44741,53.0536,0.0005815,15.51026376,409.778647721555,417.6775868529594,1 44741U 19074AE  26045.25665632  .00073184  00000+0  12336-2 0  9992,2 44741  53.0536 301.5478 0005815 129.5887 230.5635 15.51026376345081
STARLINK-1039,44744,53.0473,0.0006964,15.19564319,502.361456325023,511.9512929372104,1 44744U 19074AH  26045.14957258  .00036799  00000+0  17142-2 0  9992,2 44744  53.0473 323.1163 0006964 107.3971 252.7786 15.19564319344775
STARLINK-1042,44747,53.043,0.0003133,15.48578652,418.7530335160445,423.0132995523945,1 44747U 19074AL  26045.62208950  .00020240  00000+0  38053-3 0  9995,2 44747  53.0430 205.3610 0003133 108.6986 251.4361 15.48578652346497
STARLINK-1043,44748,53.054,0.0002957,15.52106372,408.56969137781016,412.58453690491206,1 44748U 19074AM  26045.10141569  .00029007  00000+0  47789-3 0  9997,2 44748  53.0540 308.1626 0002957  71.9099 288.2232 15.52106372344987
STARLINK-1046,44751,53.0563,0.0007687,15.41849493,435.40937035238585,445.8925749815644,1 44751U 19074AQ  26045.02738238  .00017405  00000+0  41239-3 0  9990,2 44751  53.0563 323.1257 0007687 101.8343 258.3524 15.41849493344767
STARLINK-1047,44752,53.0683,0.0004835,15.3200898,466.508109954937,473.1300835004731,1 44752U 19074AR  26045.60219770  .00007835  00000+0  26146-3 0  9996,2 44752  53.0683 253.8137 0004835 132.5236 227.6174 15.32008980345805
STARLINK-1048,44753,53.0542,0.0005302,15.50209794,412.5106994810185,419.71532219251003,1 44753U 19074AS  26045.65109171  .00021518  00000+0  38147-3 0  9993,2 44753  53.0542 279.6094 0005302 115.8254 244.3301 15.50209794345424
STARLINK-1053,44758,53.03,0.0002016,15.81813763,323.9600461726941,326.6628765923242,1 44758U 19074AX  26045.66668981  .00046312  00000+0  22683-3 0  9995,2 44758  53.0300 200.0963 0002016 316.7091 316.0925 15.81813763  6013
STARLINK-1060,44765,53.0244,0.0005168,16.392096,164.5229291388805,171.28891910525272,1 44765U 19074BE  26045.13841613  .07058494  12386-4  56434-3 0  9997,2 44765  53.0244 238.4194 0005168 305.3063 160.2648 16.39209600345945
STARLINK-1063,44768,53.16,0.0001389,15.2910466,477.5351242074048,479.4398944961031,1 44768U 19074BH  26045.36959467 -.00524078  00000+0 -19613-1 0  9994,2 44768  53.1600 327.7165 0001389  86.3930 273.7230 15.29104660344747
STARLINK-1067,44771,53.0551,0.0001523,15.52437503,408.5779619671739,410.64551023219065,1 44771U 19074BL  26045.36166955  .00086582  00000+0  13847-2 0  9995,2 44771  53.0551 316.9235 0001523 114.0031 246.1138 15.52437503344881
STARLINK-1068,44772,53.0519,0.0005647,15.58287424,388.78985477231345,396.43674015827037,1 44772U 19074BM  26045.63470595  .00086566  00000+0  11160-2 0  9992,2 44772  53.0519 292.3200 0005647 129.0352 231.1162 15.58287424345241
STARLINK-1112,44925,53.0407,0.0003145,15.91509916,295.95724409767627,300.1565700652309,1 44925U 20001M   26045.66668981  .00368819  62528-4  11229-2 0  9993,2 44925  53.0407 359.9362 0003145  84.8477 135.0087 15.91509916  6010
STARLINK-1114,44927,53.0516,0.0007773,15.46272486,422.351556442678,432.9318199913796,1 44927U 20001P   26045.63203365  .00068733  00000+0  13687-2 0  9997,2 44927  53.0516  79.6926 0007773  28.5226 331.6205 15.46272486336520
STARLINK-1123,44930,53.0529,0.0001321,15.06391669,546.3222494535985,548.1519332885391,1 44930U 20001S   26045.50196012  .00002502  00000+0  18685-3 0  9993,2 44930  53.0529  90.7132 0001321 101.6279 258.4858 15.06391669336357
STARLINK-1144,44933,53.0203,0.0006376,16.42239465,155.6833692908067,164.02061285222044,1 44933U 20001V   26045.06249604  .09131498  12349-4  49644-3 0  9992,2 44933  53.0203 330.3242 0006376 224.4044 135.6493 16.42239465339296
STARLINK-1094,44941,53.1607,0.0001425,15.30187993,474.274312612818,476.2275281701295,1 44941U 20001AD  26045.49673542 -.00000353  00000+0  20156-6 0  9993,2 44941  53.1607  67.2906 0001425  91.9403 268.1761 15.30187993336687
STARLINK-1122,44949,53.1596,0.000164,15.30209352,474.063201015274,476.3110913352202,1 44949U 20001AM  26045.66668981 -.00018512  00000+0 -61423-3 0  9997,2 44949  53.1596  66.5485 0001640  58.1730  13.5028 15.30209352  5756
STARLINK-1080,44961,53.0544,0.0008147,15.4347885,430.2999844317892,441.40269703417925,1 44961U 20001AZ  26045.26575625  .00028385  00000+0  63020-3 0  9991,2 44961  53.0544  39.7669 0008147  33.7697 326.3826 15.43478850337055
STARLINK-1090,44968,53.055,0.0001496,15.06404941,546.1603846474918,548.2324444051183,1 44968U 20001BG  26045.40611823  .00001286  00000+0  10518-3 0  9990,2 44968  53.0550  51.1429 0001496  94.5223 265.5937 15.06404941336900
STARLINK-1132,45044,53.1592,0.0005446,15.40461042,441.0318955922812,448.4633815406087,1 45044U 20006A   26045.26125489  .00061690  00000+0  14972-2 0  9995,2 45044  53.1592   4.7689 0005446  97.6257 262.5366 15.40461042333313
STARLINK-1131,45047,53.1561,0.0001493,15.29383978,476.62907791569523,478.67621670438075,1 45047U 20006D   26045.21699103  .00007612  00000+0  27560-3 0  9994,2 45047  53.1561  29.9993 0001493  91.5096 268.6076 15.29383978332953
STARLINK-1134,45048,53.0356,0.0009823,15.41367091,435.37412396540094,448.7731097432734,1 45048U 20006E   26045.23482235  .00100845  00000+0  23543-2 0  9991,2 45048  53.0356 349.6208 0009823  96.9064 263.3058 15.41367091333523
STARLINK-1156,45054,53.1561,0.0001366,15.29355629,476.8008564697129,478.67388134729936,1 45054U 20006L   26045.37085605 -.00000767  00000+0 -14238-4 0  9990,2 45054  53.1561  29.2668 0001366  99.5496 260.5658 15.29355629332975
STARLINK-1159,45057,53.0498,0.0006246,15.74981855,340.4837423535446,348.8818888672058,1 45057U 20006P   26045.66668981  .00245478  00000+0  15756-2 0  9991,2 45057  53.0498 350.0478 0006246  66.9231  42.1111 15.74981855  5866
STARLINK-1166,45060,53.0548,0.000601,15.42704338,434.03520631432,442.22836139251194,1 45060U 20006S   26045.46576002  .00079687  00000+0  17878-2 0  9999,2 45060  53.0548  23.0857 0006010  64.6946 295.4681 15.42704338333077
STARLINK-1169,45061,53.1562,0.0001457,15.29353432,476.745032947515,478.74283665191524,1 45061U 20006T   26045.34151013  .00000834  00000+0  41232-4 0  9999,2 45061  53.1562  29.4378 0001457  86.8689 273.2478 15.29353432332979
STARLINK-1171,45062,53.0487,0.0002897,15.52913965,406.2572540707333,410.1892712069057,1 45062U 20006U   26045.25944457  .00109730  00000+0  17179-2 0  9998,2 45062  53.0487   2.8319 0002897 320.1563  39.9233 15.52913965333346
STARLINK-1133,45064,53.1609,0.000131,15.30175422,474.39065714466597,476.1862546141065,1 45064U 20006W   26045.28277220  .00000827  00000+0  40063-4 0  9997,2 45064  53.1609   6.5268 0001310  77.0913 283.0234 15.30175422333296
STARLINK-1167,45071,53.1605,0.0001216,15.29353723,476.9093901086353,478.5767401404737,1 45071U 20006AD  26045.16717170  .00000300  00000+0  22717-4 0  9997,2 45071  53.1605   6.9732 0001216  78.3308 281.7829 15.29353723333270
STARLINK-1168,45072,53.1619,0.0001341,15.293681,476.7807309784075,478.6194664882869,1 45072U 20006AE  26045.24232116 -.00002588  00000+0 -77340-4 0  9993,2 45072  53.1619   6.6859 0001341  94.7231 265.3922 15.29368100333287
STARLINK-1172,45074,53.1597,0.0002215,15.30172755,473.7783837830293,476.8144547877728,1 45074U 20006AG  26045.12896180 -.00006654  00000+0 -21288-3 0  9996,2 45074  53.1597   7.2609 0002215  89.2991 270.8264 15.30172755333266
STARLINK-1153,45080,53.1615,0.0001367,15.2934845,476.82162296118713,478.6960248794476,1 45080U 20006AN  26045.28228912 -.00001035  00000+0 -23537-4 0  9990,2 45080  53.1615   6.3541 0001367 107.2553 252.8597 15.29348450333298
STARLINK-1151,45081,53.0538,0.0012616,15.55027202,393.5196440263926,410.6274713054954,1 45081U 20006AP  26045.24078378  .00121223  00000+0  17490-2 0  9995,2 45081  53.0538 353.8777 0012616  69.2904 290.9457 15.55027202333464
STARLINK-1185,45087,53.1257,0.0002206,15.23162494,494.79215431706234,497.8251597409444,1 45087U 20006AV  26045.66668981  .00110339  00000+0  45552-2 0  9998,2 45087  53.1257 349.1108 0002206  90.3460  89.1285 15.23162494  5743
STARLINK-1183,45088,53.1222,0.0001082,15.22485064,497.60366073685964,499.0917320251556,1 45088U 20006AW  26045.66668981  .00117368  00000+0  49377-2 0  9997,2 45088  53.1222 349.3278 0001082 119.8321 180.3167 15.22485064  5686
STARLINK-1152,45096,53.0415,0.0007538,15.35446663,454.4398227902466,464.7483862033869,1 45096U 20006BE  26045.18698850  .00069632  00000+0  19841-2 0  9994,2 45096  53.0415 317.0726 0007538 109.8010 250.3805 15.35446663333973
